NORAD_CAT_ID,OBJECT_NAME,OBJECT_TYPE,EPOCH,MEAN_MOTION,ECCENTRICITY,INCLINATION,RA_OF_ASC_NODE,ARG_OF_PERICENTER,MEAN_ANOMALY,BSTAR,MEAN_MOTION_DOT,MEAN_MOTION_DDOT,TLE_LINE0,TLE_LINE1,TLE_LINE2,SEMIMAJOR_AXIS,PERIOD,APOGEE,PERIGEE,DECAYED
50817.0,STARLINK-3341,PAYLOAD,2023-07-02 10:24:00,15.08841246,9.81e-05,53.217,254.1536,94.2503,265.8602,8.8154e-05,1.116e-05,0.0,0 STARLINK-3341,1 50817U 22001Q   23183.43334441  .00001116  00000-0  88154-4 0  9998,2 50817  53.2170 254.1536 0000981  94.2503 265.8602 15.08841246 83524,6917.877,95.437,540.42,539.063,0.0
50817.0,STARLINK-3341,PAYLOAD,2023-07-03 11:50:11,15.08844453,8.45e-05,53.2159,249.3951,86.8956,273.2133,0.00019742,2.856e-05,0.0,0 STARLINK-3341,1 50817U 22001Q   23184.49318472  .00002856  00000-0  19742-3 0  9999,2 50817  53.2159 249.3951 0000845  86.8956 273.2133 15.08844453 83688,6917.867,95.437,540.316,539.147,0.0
50817.0,STARLINK-3341,PAYLOAD,2023-07-04 11:40:58,15.088423,9.29e-05,53.2163,244.9347,87.7826,272.3272,6.2708e-05,7.1e-06,0.0,0 STARLINK-3341,1 50817U 22001Q   23185.48678674  .00000710  00000-0  62708-4 0  9990,2 50817  53.2163 244.9347 0000929  87.7826 272.3272 15.08842300 83832,6917.873,95.437,540.381,539.096,0.0
50817.0,STARLINK-3341,PAYLOAD,2023-07-05 09:56:22,15.08838227,9.68e-05,53.2154,240.7711,83.9436,276.1666,5.7083e-05,6.21e-06,0.0,0 STARLINK-3341,1 50817U 22001Q   23186.41415072  .00000621  00000-0  57083-4 0  9996,2 50817  53.2154 240.7711 0000968  83.9436 276.1666 15.08838227 83976,6917.886,95.438,540.42,539.081,0.0
50817.0,STARLINK-3341,PAYLOAD,2023-07-06 12:57:55,15.08845511,9.04e-05,53.2167,235.7161,80.9268,279.1826,0.00012365,1.681e-05,0.0,0 STARLINK-3341,1 50817U 22001Q   23187.54022764  .00001681  00000-0  12365-3 0  9993,2 50817  53.2167 235.7161 0000904  80.9268 279.1826 15.08845511 84148,6917.864,95.437,540.354,539.103,0.0
50817.0,STARLINK-3341,PAYLOAD,2023-07-08 09:28:43,15.08842428,9.62e-05,53.2162,227.3895,83.0125,277.0976,3.3312e-05,2.42e-06,0.0,0 STARLINK-3341,1 50817U 22001Q   23189.39494877  .00000242  00000-0  33312-4 0  9994,2 50817  53.2162 227.3895 0000962  83.0125 277.0976 15.08842428 84422,6917.873,95.437,540.403,539.072,0.0
50817.0,STARLINK-3341,PAYLOAD,2023-07-09 02:57:58,15.08835548,9.51e-05,53.2169,224.1193,84.6965,275.4135,-1.927e-05,-5.94e-06,0.0,0 STARLINK-3341,1 50817U 22001Q   23190.12359553 -.00000594  00000-0 -19270-4 0  9997,2 50817  53.2169 224.1193 0000951  84.6965 275.4135 15.08835548 84538,6917.894,95.438,540.417,539.101,0.0
50817.0,STARLINK-3341,PAYLOAD,2023-07-10 05:59:31,15.0883647,9.21e-05,53.2167,219.0643,81.9922,278.1175,5.8554e-05,6.44e-06,0.0,0 STARLINK-3341,1 50817U 22001Q   23191.24967455  .00000644  00000-0  58554-4 0  9999,2 50817  53.2167 219.0643 0000921  81.9922 278.1175 15.08836470 84707,6917.891,95.438,540.393,539.119,0.0
50817.0,STARLINK-3341,PAYLOAD,2023-07-11 10:36:28,15.08838468,9.14e-05,53.2163,213.7113,78.5291,281.5804,8.1832e-05,1.015e-05,0.0,0 STARLINK-3341,1 50817U 22001Q   23192.44199506  .00001015  00000-0  81832-4 0  9994,2 50817  53.2163 213.7113 0000914  78.5291 281.5804 15.08838468 84884,6917.885,95.438,540.382,539.118,0.0
50817.0,STARLINK-3341,PAYLOAD,2023-07-13 11:53:25,15.08843544,9.73e-05,53.2164,204.4927,79.0567,281.0535,4.8681e-05,4.87e-06,0.0,0 STARLINK-3341,1 50817U 22001Q   23194.49543335  .00000487  00000-0  48681-4 0  9991,2 50817  53.2164 204.4927 0000973  79.0567 281.0535 15.08843544 85194,6917.87,95.437,540.408,539.061,0.0
50817.0,STARLINK-3341,PAYLOAD,2023-07-15 00:27:17,15.08840482,0.0001019,53.2167,197.6528,82.303,277.8078,2.9438e-05,1.81e-06,0.0,0 STARLINK-3341,1 50817U 22001Q   23196.01895536  .00000181  00000-0  29438-4 0  9994,2 50817  53.2167 197.6528 0001019  82.3030 277.8078 15.08840482 85420,6917.879,95.438,540.449,539.039,0.0
50817.0,STARLINK-3341,PAYLOAD,2023-07-16 06:39:37,15.08834875,0.0001031,53.217,192.0039,79.876,280.2349,2.2334e-05,6.8e-07,0.0,0 STARLINK-3341,1 50817U 22001Q   23197.27751975  .00000068  00000-0  22334-4 0  9993,2 50817  53.2170 192.0039 0001031  79.8760 280.2349 15.08834875 85614,6917.896,95.438,540.474,539.048,0.0
50817.0,STARLINK-3341,PAYLOAD,2023-07-17 16:02:43,15.08835813,0.0001105,53.2169,185.759,80.1457,279.966,-1.094e-06,-3.05e-06,0.0,0 STARLINK-3341,1 50817U 22001Q   23198.66856238 -.00000305  00000-0 -10940-5 0  9992,2 50817  53.2169 185.7590 0001105  80.1457 279.9660 15.08835813 85820,6917.893,95.438,540.523,538.994,0.0
50817.0,STARLINK-3341,PAYLOAD,2023-07-18 11:07:21,15.08841273,0.000111,53.2167,182.1909,83.5439,276.568,8.5918e-05,1.08e-05,0.0,0 STARLINK-3341,1 50817U 22001Q   23199.46343833  .00001080  00000-0  85918-4 0  9998,2 50817  53.2167 182.1909 0001110  83.5439 276.5680 15.08841273 85941,6917.876,95.437,540.509,538.974,0.0
50817.0,STARLINK-3341,PAYLOAD,2023-07-20 21:56:37,15.08841567,0.0001214,53.217,171.1885,80.9673,279.1456,6.9242e-05,8.14e-06,0.0,0 STARLINK-3341,1 50817U 22001Q   23201.91432367  .00000814  00000-0  69242-4 0  9999,2 50817  53.2170 171.1885 0001214  80.9673 279.1456 15.08841567 86310,6917.876,95.437,540.58,538.901,0.0
50817.0,STARLINK-3341,PAYLOAD,2023-07-24 07:01:18,15.08837194,0.0001237,53.2181,156.0235,94.7089,265.4044,1.3801e-05,-6.8e-07,0.0,0 STARLINK-3341,1 50817U 22001Q   23205.29256998 -.00000068  00000-0  13801-4 0  9990,2 50817  53.2181 156.0235 0001237  94.7089 265.4044 15.08837194 85571,6917.889,95.438,540.61,538.898,0.0
50817.0,STARLINK-3341,PAYLOAD,2023-07-25 06:52:05,15.08839515,0.0001229,53.2169,151.5632,82.4773,277.6359,8.4227e-05,1.053e-05,0.0,0 STARLINK-3341,1 50817U 22001Q   23206.28617028  .00001053  00000-0  84227-4 0  9999,2 50817  53.2169 151.5632 0001229  82.4773 277.6359 15.08839515 85723,6917.882,95.438,540.597,538.897,0.0
50817.0,STARLINK-3341,PAYLOAD,2023-07-26 03:32:05,15.08847854,0.0001124,53.2145,147.6958,118.6429,241.4677,0.0001267,1.73e-05,0.0,0 STARLINK-3341,1 50817U 22001Q   23207.14728499  .00001730  00000-0  12670-3 0  9994,2 50817  53.2145 147.6958 0001124 118.6429 241.4677 15.08847854 85859,6917.856,95.437,540.499,538.944,0.0
50817.0,STARLINK-3341,PAYLOAD,2023-07-27 00:12:06,15.08846381,9.85e-05,53.2171,143.8321,61.1844,298.9247,0.00012534,1.708e-05,0.0,0 STARLINK-3341,1 50817U 22001Q   23208.00840535  .00001708  00000-0  12534-3 0  9990,2 50817  53.2171 143.8321 0000985  61.1844 298.9247 15.08846381 87235,6917.861,95.437,540.407,539.044,0.0
50817.0,STARLINK-3341,PAYLOAD,2023-07-27 04:58:15,15.08852208,0.0001013,53.2187,142.9415,72.938,287.1723,0.00017955,2.572e-05,0.0,0 STARLINK-3341,1 50817U 22001Q   23208.20711914  .00002572  00000-0  17955-3 0  9992,2 50817  53.2187 142.9415 0001013  72.9380 287.1723 15.08852208 87261,6917.843,95.437,540.409,539.007,0.0
50817.0,STARLINK-3341,PAYLOAD,2023-07-28 00:02:54,15.08831763,0.0001131,53.2166,139.3696,76.6779,283.4339,-8.0114e-05,-1.562e-05,0.0,0 STARLINK-3341,1 50817U 22001Q   23209.00202339 -.00001562  00000-0 -80114-4 0  9995,2 50817  53.2166 139.3696 0001131  76.6779 283.4339 15.08831763 87381,6917.906,95.438,540.553,538.988,0.0
50817.0,STARLINK-3341,PAYLOAD,2023-07-28 04:49:04,15.08833049,0.0001169,53.217,138.4752,77.0378,283.0745,-7.2693e-05,-1.444e-05,0.0,0 STARLINK-3341,1 50817U 22001Q   23209.20074291 -.00001444  00000-0 -72693-4 0  9993,2 50817  53.2170 138.4752 0001169  77.0378 283.0745 15.08833049 86161,6917.902,95.438,540.575,538.958,0.0
50817.0,STARLINK-3341,PAYLOAD,2023-07-29 01:29:03,15.08854849,0.0001333,53.2171,134.6133,91.2741,268.8403,3.627e-06,-2.3e-06,0.0,0 STARLINK-3341,1 50817U 22001Q   23210.06184736 -.00000230  00000-0  36270-5 0  9998,2 50817  53.2171 134.6133 0001333  91.2741 268.8403 15.08854849 87544,6917.835,95.437,540.622,538.778,0.0
50817.0,STARLINK-3341,PAYLOAD,2023-07-29 12:36:45,15.088413,0.0001219,53.2169,132.5328,77.9764,282.1364,0.00019998,2.896e-05,0.0,0 STARLINK-3341,1 50817U 22001Q   23210.52552870  .00002896  00000-0  19998-3 0  9992,2 50817  53.2169 132.5328 0001219  77.9764 282.1364 15.08841300 87614,6917.876,95.437,540.585,538.898,0.0
50817.0,STARLINK-3341,PAYLOAD,2023-07-29 23:44:28,15.08838103,0.000131,53.218,130.4521,81.0494,279.0646,0.00012945,1.773e-05,0.0,0 STARLINK-3341,1 50817U 22001Q   23210.98921444  .00001773  00000-0  12945-3 0  9997,2 50817  53.2180 130.4521 0001310  81.0494 279.0646 15.08838103 87689,6917.886,95.438,540.657,538.845,0.0
50817.0,STARLINK-3341,PAYLOAD,2023-07-31 01:10:38,15.08844348,0.0001172,53.2172,125.6927,92.6299,267.4827,-3.7817e-05,-8.9e-06,0.0,0 STARLINK-3341,1 50817U 22001Q   23212.04905435 -.00000890  00000-0 -37817-4 0  9995,2 50817  53.2172 125.6927 0001172  92.6299 267.4827 15.08844348 87841,6917.867,95.437,540.543,538.921,0.0
50817.0,STARLINK-3341,PAYLOAD,2023-07-31 17:04:30,15.08837496,0.0001253,53.2178,122.7229,91.1571,268.9564,-5.4268e-05,-1.151e-05,0.0,0 STARLINK-3341,1 50817U 22001Q   23212.71145965 -.00001151  00000-0 -54268-4 0  9993,2 50817  53.2178 122.7229 0001253  91.1571 268.9564 15.08837496 87948,6917.888,95.438,540.62,538.886,0.0
50817.0,STARLINK-3341,PAYLOAD,2023-08-02 00:52:13,15.08834367,0.0001342,53.2187,116.7739,108.1638,251.95,5.4987e-05,5.87e-06,0.0,0 STARLINK-3341,1 50817U 22001Q   23214.03626421  .00000587  00000-0  54987-4 0  9999,2 50817  53.2187 116.7739 0001342 108.1638 251.9500 15.08834367 88148,6917.898,95.438,540.691,538.834,0.0
50817.0,STARLINK-3341,PAYLOAD,2023-08-03 00:42:59,15.08846805,0.0001211,53.2182,112.3115,80.3879,279.725,0.00017673,2.526e-05,0.0,0 STARLINK-3341,1 50817U 22001Q   23215.02985635  .00002526  00000-0  17673-3 0  9999,2 50817  53.2182 112.3115 0001211  80.3879 279.7250 15.08846805 88292,6917.86,95.437,540.562,538.887,0.0
50817.0,STARLINK-3341,PAYLOAD,2023-08-04 02:09:10,15.08842421,0.0001218,53.2182,107.5531,84.1955,275.9176,4.5442e-05,4.35e-06,0.0,0 STARLINK-3341,1 50817U 22001Q   23216.08970469  .00000435  00000-0  45442-4 0  9998,2 50817  53.2182 107.5531 0001218  84.1955 275.9176 15.08842421 88457,6917.873,95.437,540.581,538.895,0.0
